#dP2019  5  4  0  0  0.00000000      96 __u+U ITR00 FIT  IAC
## 2051 518400.00000000   900.00000000 58607 0.0000000000000
+   88   C06C07C08C09C10C11C12C13C14C16E01E02E03E04E05E07E08
+        E09E11E12E13E14E15E18E19E21E24E25E26E27E30E31E33E36
+        G01G02G03G04G05G06G08G09G10G11G12G13G14G15G16G17G18
+        G19G20G21G22G23G24G25G26G27G28G29G30G31G32R01R02R03
+        R04R05R07R08R09R10R11R13R14R15R16R17R18R19R20R21R22
+        R23R24R26  0  0  0  0  0  0  0  0  0  0  0  0  0  0
++        10 10  9  9  9  9  8  9  9  9  6  5  5  5  5  6  5
++         5  6  6  5  5  5  6  6  6  6  5  6  5  5  6  7  5
++         4  3  4  4  4  3  4  4  4  4  3  4  4  4  4  4  4
++         4  4  4  4  3  4  4  4  4  4  4  4  4  4  6  6  5
++         5  6  6  6  6  6  5  5  5  6  5  6  5  5  5  5  6
++         6  6  8  0  0  0  0  0  0  0  0  0  0  0  0  0  0
%c M  cc GPS ccc cccc cccc cccc cccc ccccc ccccc ccccc ccccc
%c cc cc ccc ccc cccc cccc cccc cccc ccccc ccccc ccccc ccccc
%f  0.0000000  0.000000000  0.00000000000  0.000000000000000
%f  0.0000000  0.000000000  0.00000000000  0.000000000000000
%i    0    0    0    0      0      0      0      0         0
%i    0    0    0    0      0      0      0      0         0
/*                                                          
/*   RSA / INFORMATION & ANALYSIS CENTER (IAC) OF MCC       
/*   ULTRA-RAPID DETERMINATION                              
/* PCV:IGS14_2045 OL/AL:FES2004  NONE     YN ORB:CoN CLK:CoN
*  2019 05 04  3  0  0.00000000
PC06 -14796.042904  37635.269192 -10905.619261    779.956797
PC07 -10654.910966  24126.472757  33064.956648      5.117159
PC08 -25776.182877  24575.182963 -22700.777275    153.599758
PC09  -5038.635959  41304.939576   5777.305788    735.740948
PC10   4821.364835  30925.916578  28553.445027   -720.167333
PC11  -1166.038570  21803.314695 -17356.534778   -133.698545
PC12 -19024.467233  18935.349297   7835.361843    634.893365
PC13  -9746.682817  26334.422676 -31486.528926   -691.265384
PC14   1250.092822  24178.774257 -13768.839655    637.991848
PC16 -11675.906046  39760.664650  -7194.457775   -677.878506
PE01  26475.555188   3889.041055 -12661.810792   -597.202998
PE02 -26463.137110  -3862.374058  12688.571896     58.709162
PE03 -17082.754659   1538.887980 -24117.343256   -162.219614
PE04  10712.634610 -21852.203139  16860.672835   -274.535963
PE05 -13494.639291 -19862.730927 -17299.113386     63.195504
PE07   2048.463797  29531.194790    421.517678   -180.875913
PE08 -10365.699063  22022.215126 -16843.561234   6361.960393
PE09  -2277.939047 -29501.912994   -412.946283   6450.308871
PE11   4064.287621 -19979.393946  21465.605615   5699.754019
PE12  21435.925106 -19468.521127   6207.067524   6413.566332
PE13  -4144.635484  19976.887686 -21434.325341    386.539830
PE14   2173.359358 -24453.908503   7775.487856   -553.363369
PE15 -21132.969200  19659.543724  -6529.214054    911.664639
PE18   9068.417333  22266.221093 -20050.652003   -651.521796
PE19  17062.037083    731.819265  24186.651339     -6.658232
PE21  23799.588008  16439.134953   6290.437265   -532.217029
PE24  -7304.981647 -19384.021205 -21166.150875   6099.665782
PE25 -23758.254167 -16468.001614  -6357.911949   1815.242467
PE26  15341.064414   8852.167936 -23712.213956   4609.905531
PE27   7031.877588  19232.277464  21371.006499    477.093488
PE30 -13616.201246  10887.702750  23908.001821   4900.293342
PE31  13825.995388 -10729.208970 -23872.740994   -464.439682
PE33  25796.932050  -7847.657034 -12219.998826   -470.352776
PE36 -15310.688983  -8604.194022  23831.226968    716.513900
PG01   3644.206852  14529.669850 -22113.040555     -8.226781
PG02  18263.684358 -14960.145524  12614.563205   -204.598933
PG03  10007.496772  21954.477638 -11240.772220    188.253423
PG04  13563.545092   7270.016756  21661.958143    156.654293
PG05   7843.424779 -13673.537707  21235.695028      1.008813
PG06  25690.499127  -6776.196031    768.865929    214.719170
PG08  -5167.641547  25767.022943  -2946.012211   -142.264315
PG09  10807.031022  13819.993078  19897.892942    417.740129
PG10 -20935.518956  -6944.300157 -14873.750449     56.128198
PG11   -250.494793  19187.125093 -18987.289851   -613.963248
PG12  -7864.077587 -22385.528538 -12330.922916    245.635258
PG13  12879.340285 -22854.570570   3888.368210    -65.171730
PG14 -16799.841629  12021.352406 -16271.375389    -81.944804
PG15   1694.122784 -25952.655703  -4493.005024   -314.969896
PG16  -7795.165398  13161.881312  21461.147388    -37.391462
PG17  15720.343576  -3001.830684 -20774.833673     49.116261
PG18  -6562.360454  16710.991869 -20020.749075     50.017259
PG19  17086.715323 -10902.230361 -17509.420039   -323.214281
PG20 -22567.087643 -12861.895394  -6013.639934    524.461613
PG21 -21479.077890  -5097.723953  15461.694792   -199.763092
PG22   3966.447877  20332.700704 -16429.169038   -694.891820
PG23   3385.474209  22930.615114  12921.014460   -187.671675
PG24   -141.742797 -16136.229709 -21212.497956    -65.605089
PG25 -17480.615084 -20136.739683  -1590.150602   -752.591672
PG26 -15887.963128   4973.505691  20708.899440    192.368559
PG27 -12015.923917  22120.188387   7865.489899   -123.318384
PG28  19744.074942   9632.684854 -14253.222750    767.761136
PG29  -6100.506496 -18320.471372  18205.347602    210.210081
PG30  25024.794283   1813.015266   9016.088502    -98.095562
PG31 -25774.491388   7005.897086   2230.471243     40.640679
PG32 -16359.350617   5959.285339 -19966.361445   -103.537789
PR01 -12788.992969  -8475.004626 -20365.608027     43.270888
PR02  -6668.844130  12983.723750 -20861.023719    366.825709
PR03   2796.242471  24050.939202  -7911.049608     -5.361515
PR04  10818.489520  20787.094239  10079.705254    304.934819
PR05  12244.250767   6207.938325  21509.909898     27.413725
PR07  -3003.098368 -24214.038299   7542.484913    -19.373619
PR08 -10517.716440 -21286.670992  -9276.315634     17.939682
PR09  14868.442973  -6096.095148 -19823.558214     67.808633
PR10  -1127.762129 -11282.544845 -22866.192020     49.033058
PR11 -18909.065430 -11287.504311 -12823.471628    -64.961073
PR13 -16217.774374   5218.926603  18959.966290    -23.210959
PR14   1392.619844  11550.581378  22707.942056     38.584452
PR15  18305.723335  11419.993066  13621.240867    101.748633
PR16  24848.108646   4203.378214  -3557.934843      9.798002
PR17  -9878.187090  19014.197834 -13854.199069    225.209399
PR18   4235.031533  10435.616006 -22866.780273     -8.079077
PR19  16051.406215  -3331.241517 -19544.549583    -28.811995
PR20  19235.208812 -16458.710188  -3346.308540   -376.959914
PR21   9418.513607 -18813.387598  14410.306857    -46.006941
PR22  -6213.921629  -8568.757381  23217.072091    -17.477615
PR23 -18113.300476   7864.439775  16133.931085    225.766216
PR24 -18474.897842  17498.884314   1566.112887   -180.041703
PR26  19288.535447 -15575.777349  -5946.820372     -8.764549
EOF
